start=new Date('2022-12-22T00:00:00.000Z').valueOf();
sats=[{"MEAN_ANOMALY":"318.7465","PERIOD":"95.592","EPHEMERIS_TYPE":"0","MEAN_ELEMENT_THEORY":"SGP4","ECCENTRICITY":"0.00016830","GP_ID":"221117581","MEAN_MOTION":"15.06406236","MEAN_MOTION_DDOT":"0.0000000000000","CLASSIFICATION_TYPE":"U","RCS_SIZE":"LARGE","NORAD_CAT_ID":"47646","EPOCH":"2022-12-21T02:25:40.872864","DECAY_DATE":null,"REF_FRAME":"TEME","ELEMENT_SET_NO":"999","TIME_SYSTEM":"UTC","MEAN_MOTION_DOT":"-0.00000585","ARG_OF_PERICENTER":"41.3651","RA_OF_ASC_NODE":"239.8009","COUNTRY_CODE":"US","APOAPSIS":"548.360","REV_AT_EPOCH":"10383","LAUNCH_DATE":"2021-02-16","OBJECT_TYPE":"PAYLOAD","PERIAPSIS":"546.029","TLE_LINE1":"1 47646U 21012AC  22355.10116751 -.00000585  00000-0 -20390-4 0  9990","BSTAR":"-0.00002039000000","OBJECT_ID":"2021-012AC","OBJECT_NAME":"STARLINK-2028","SITE":"AFETR","INCLINATION":"53.0537","SEMIMAJOR_AXIS":"6925.329","FILE":"3716551","CENTER_NAME":"EARTH","TLE_LINE2":"2 47646  53.0537 239.8009 0001683  41.3651 318.7465 15.06406236103833"},{"MEAN_MOTION_DDOT":"0.0000000000000","GP_ID":"221122685","MEAN_MOTION":"15.06384326","ECCENTRICITY":"0.00016500","MEAN_ELEMENT_THEORY":"SGP4","EPHEMERIS_TYPE":"0","PERIOD":"95.593","MEAN_ANOMALY":"275.3470","RA_OF_ASC_NODE":"302.4646","ARG_OF_PERICENTER":"84.7707","MEAN_MOTION_DOT":"-0.00001293","TIME_SYSTEM":"UTC","ELEMENT_SET_NO":"999","REF_FRAME":"TEME","DECAY_DATE":null,"EPOCH":"2022-12-21T13:39:04.952448","NORAD_CAT_ID":"47647","RCS_SIZE":"LARGE","CLASSIFICATION_TYPE":"U","BSTAR":"-0.00006796600000","TLE_LINE1":"1 47647U 21012AD  22355.56880732 -.00001293  00000-0 -67966-4 0  9995","PERIAPSIS":"546.119","LAUNCH_DATE":"2021-02-16","OBJECT_TYPE":"PAYLOAD","REV_AT_EPOCH":"10250","APOAPSIS":"548.404","COUNTRY_CODE":"US","TLE_LINE2":"2 47647  53.0540 302.4646 0001650  84.7707 275.3470 15.06384326102501","CENTER_NAME":"EARTH","FILE":"3716743","SEMIMAJOR_AXIS":"6925.397","INCLINATION":"53.0540","SITE":"AFETR","OBJECT_NAME":"STARLINK-2030","OBJECT_ID":"2021-012AD"},{"FILE":"3716551","CENTER_NAME":"EARTH","TLE_LINE2":"2 47648  53.0528 283.9926 0001319  90.3556 269.7584 15.06393938103254","OBJECT_ID":"2021-012AE","OBJECT_NAME":"STARLINK-2031","SITE":"AFETR","INCLINATION":"53.0528","SEMIMAJOR_AXIS":"6925.367","REV_AT_EPOCH":"10325","OBJECT_TYPE":"PAYLOAD","LAUNCH_DATE":"2021-02-16","PERIAPSIS":"546.319","TLE_LINE1":"1 47648U 21012AE  22355.22784564 -.00000053  00000-0  15316-4 0  9999","BSTAR":"0.00001531600000","COUNTRY_CODE":"US","APOAPSIS":"548.146","REF_FRAME":"TEME","DECAY_DATE":null,"ELEMENT_SET_NO":"999","TIME_SYSTEM":"UTC","MEAN_MOTION_DOT":"-0.00000053","RA_OF_ASC_NODE":"283.9926","ARG_OF_PERICENTER":"90.3556","CLASSIFICATION_TYPE":"U","RCS_SIZE":"MEDIUM","NORAD_CAT_ID":"47648","EPOCH":"2022-12-21T05:28:05.863296","ECCENTRICITY":"0.00013190","GP_ID":"221116109","MEAN_MOTION":"15.06393938","MEAN_MOTION_DDOT":"0.0000000000000","MEAN_ANOMALY":"269.7584","PERIOD":"95.593","EPHEMERIS_TYPE":"0","MEAN_ELEMENT_THEORY":"SGP4"},{"COUNTRY_CODE":"US","APOAPSIS":"548.122","PERIAPSIS":"546.370","BSTAR":"-0.00007743800000","TLE_LINE1":"1 47649U 21012AF  22355.49692209 -.00001434  00000-0 -77438-4 0  9991","REV_AT_EPOCH":"10329","LAUNCH_DATE":"2021-02-16","OBJECT_TYPE":"PAYLOAD","INCLINATION":"53.0554","SEMIMAJOR_AXIS":"6925.381","OBJECT_ID":"2021-012AF","SITE":"AFETR","OBJECT_NAME":"STARLINK-2032","TLE_LINE2":"2 47649  53.0554 282.7858 0001265  69.5664 290.5461 15.06389553103291","FILE":"3716551","CENTER_NAME":"EARTH","MEAN_ELEMENT_THEORY":"SGP4","EPHEMERIS_TYPE":"0","MEAN_ANOMALY":"290.5461","PERIOD":"95.593","ECCENTRICITY":"0.00012650","MEAN_MOTION_DDOT":"0.0000000000000","MEAN_MOTION":"15.06389553","GP_ID":"221116861","NORAD_CAT_ID":"47649","EPOCH":"2022-12-21T11:55:34.068576","RCS_SIZE":"LARGE","CLASSIFICATION_TYPE":"U","TIME_SYSTEM":"UTC","ARG_OF_PERICENTER":"69.5664","RA_OF_ASC_NODE":"282.7858","MEAN_MOTION_DOT":"-0.00001434","ELEMENT_SET_NO":"999","DECAY_DATE":null,"REF_FRAME":"TEME"},{"TLE_LINE1":"1 47650U 21012AG  22355.21680100 -.00002540  00000-0 -15173-3 0  9996","BSTAR":"-0.00015173000000","PERIAPSIS":"546.217","OBJECT_TYPE":"PAYLOAD","LAUNCH_DATE":"2021-02-16","REV_AT_EPOCH":"10323","APOAPSIS":"548.300","COUNTRY_CODE":"US","TLE_LINE2":"2 47650  53.0554 284.0444 0001504  75.2951 284.8205 15.06385432103236","CENTER_NAME":"EARTH","FILE":"3716551","SEMIMAJOR_AXIS":"6925.393","INCLINATION":"53.0554","OBJECT_NAME":"STARLINK-2033","SITE":"AFETR","OBJECT_ID":"2021-012AG","MEAN_MOTION":"15.06385432","GP_ID":"221117082","MEAN_MOTION_DDOT":"0.0000000000000","ECCENTRICITY":"0.00015040","EPHEMERIS_TYPE":"0","MEAN_ELEMENT_THEORY":"SGP4","PERIOD":"95.593","MEAN_ANOMALY":"284.8205","MEAN_MOTION_DOT":"-0.00002540","RA_OF_ASC_NODE":"284.0444","ARG_OF_PERICENTER":"75.2951","TIME_SYSTEM":"UTC","REF_FRAME":"TEME","DECAY_DATE":null,"ELEMENT_SET_NO":"999","EPOCH":"2022-12-21T05:12:11.606400","NORAD_CAT_ID":"47650","CLASSIFICATION_TYPE":"U","RCS_SIZE":"LARGE"},{"CENTER_NAME":"EARTH","FILE":"3716551","TLE_LINE2":"2 47651  53.0529 303.9156 0001511  83.2128 276.9033 15.06392684102971","SITE":"AFETR","OBJECT_NAME":"STARLINK-2035","OBJECT_ID":"2021-012AH","SEMIMAJOR_AXIS":"6925.371","INCLINATION":"53.0529","LAUNCH_DATE":"2021-02-16","OBJECT_TYPE":"PAYLOAD","REV_AT_EPOCH":"10297","BSTAR":"0.00007054500000","TLE_LINE1":"1 47651U 21012AH  22355.25551261  .00000769  00000-0  70545-4 0  9990","PERIAPSIS":"546.190","APOAPSIS":"548.282","COUNTRY_CODE":"US","ELEMENT_SET_NO":"999","DECAY_DATE":null,"REF_FRAME":"TEME","ARG_OF_PERICENTER":"83.2128","RA_OF_ASC_NODE":"303.9156","MEAN_MOTION_DOT":"0.00000769","TIME_SYSTEM":"UTC","RCS_SIZE":"LARGE","CLASSIFICATION_TYPE":"U","EPOCH":"2022-12-21T06:07:56.289504","NORAD_CAT_ID":"47651","MEAN_MOTION_DDOT":"0.0000000000000","MEAN_MOTION":"15.06392684","GP_ID":"221116359","ECCENTRICITY":"0.00015110","PERIOD":"95.593","MEAN_ANOMALY":"276.9033","MEAN_ELEMENT_THEORY":"SGP4","EPHEMERIS_TYPE":"0"},{"APOAPSIS":"548.447","COUNTRY_CODE":"US","BSTAR":"-0.00008369500000","TLE_LINE1":"1 47652U 21012AJ  22355.14492475 -.00001528  00000-0 -83695-4 0  9996","PERIAPSIS":"546.025","OBJECT_TYPE":"PAYLOAD","LAUNCH_DATE":"2021-02-16","REV_AT_EPOCH":"10295","SEMIMAJOR_AXIS":"6925.371","INCLINATION":"53.0564","SITE":"AFETR","OBJECT_NAME":"STARLINK-2036","OBJECT_ID":"2021-012AJ","TLE_LINE2":"2 47652  53.0564 304.3545 0001749  84.2043 275.9146 15.06392718102958","CENTER_NAME":"EARTH","FILE":"3716551","MEAN_ELEMENT_THEORY":"SGP4","EPHEMERIS_TYPE":"0","PERIOD":"95.593","MEAN_ANOMALY":"275.9146","MEAN_MOTION_DDOT":"0.0000000000000","MEAN_MOTION":"15.06392718","GP_ID":"221116609","ECCENTRICITY":"0.00017490","EPOCH":"2022-12-21T03:28:41.498400","NORAD_CAT_ID":"47652","RCS_SIZE":"LARGE","CLASSIFICATION_TYPE":"U","RA_OF_ASC_NODE":"304.3545","ARG_OF_PERICENTER":"84.2043","MEAN_MOTION_DOT":"-0.00001528","TIME_SYSTEM":"UTC","ELEMENT_SET_NO":"999","DECAY_DATE":null,"REF_FRAME":"TEME"},{"MEAN_ELEMENT_THEORY":"SGP4","EPHEMERIS_TYPE":"0","MEAN_ANOMALY":"289.1234","PERIOD":"95.592","ECCENTRICITY":"0.00013950","MEAN_MOTION_DDOT":"0.0000000000000","GP_ID":"221117361","MEAN_MOTION":"15.06397056","NORAD_CAT_ID":"47653","EPOCH":"2022-12-21T01:45:09.727200","RCS_SIZE":"LARGE","CLASSIFICATION_TYPE":"U","TIME_SYSTEM":"UTC","ARG_OF_PERICENTER":"70.9906","RA_OF_ASC_NODE":"284.6890","MEAN_MOTION_DOT":"-0.00003423","ELEMENT_SET_NO":"999","DECAY_DATE":null,"REF_FRAME":"TEME","COUNTRY_CODE":"US","APOAPSIS":"548.189","PERIAPSIS":"546.256","BSTAR":"-0.00021106000000","TLE_LINE1":"1 47653U 21012AK  22355.07302925 -.00003423  00000-0 -21106-3 0  9993","REV_AT_EPOCH":"10321","OBJECT_TYPE":"PAYLOAD","LAUNCH_DATE":"2021-02-16","INCLINATION":"53.0555","SEMIMAJOR_AXIS":"6925.358","OBJECT_ID":"2021-012AK","SITE":"AFETR","OBJECT_NAME":"STARLINK-2037","TLE_LINE2":"2 47653  53.0555 284.6890 0001395  70.9906 289.1234 15.06397056103214","FILE":"3716551","CENTER_NAME":"EARTH"},{"MEAN_ANOMALY":"291.2343","PERIOD":"95.594","EPHEMERIS_TYPE":"0","MEAN_ELEMENT_THEORY":"SGP4","ECCENTRICITY":"0.00016130","GP_ID":"221117582","MEAN_MOTION":"15.06378502","MEAN_MOTION_DDOT":"0.0000000000000","CLASSIFICATION_TYPE":"U","RCS_SIZE":"LARGE","NORAD_CAT_ID":"47654","EPOCH":"2022-12-21T08:20:35.420352","REF_FRAME":"TEME","DECAY_DATE":null,"ELEMENT_SET_NO":"999","TIME_SYSTEM":"UTC","MEAN_MOTION_DOT":"-0.00008944","RA_OF_ASC_NODE":"303.4571","ARG_OF_PERICENTER":"68.8818","COUNTRY_CODE":"US","APOAPSIS":"548.397","REV_AT_EPOCH":"10298","OBJECT_TYPE":"PAYLOAD","LAUNCH_DATE":"2021-02-16","PERIAPSIS":"546.162","TLE_LINE1":"1 47654U 21012AL  22355.34763218 -.00008944  00000-0 -58261-3 0  9995","BSTAR":"-0.00058261000000","OBJECT_ID":"2021-012AL","OBJECT_NAME":"STARLINK-2038","SITE":"AFETR","INCLINATION":"53.0516","SEMIMAJOR_AXIS":"6925.414","FILE":"3716551","CENTER_NAME":"EARTH","TLE_LINE2":"2 47654  53.0516 303.4571 0001613  68.8818 291.2343 15.06378502102982"},{"SITE":"AFETR","OBJECT_NAME":"STARLINK-2039","OBJECT_ID":"2021-012AM","SEMIMAJOR_AXIS":"6925.395","INCLINATION":"53.0560","CENTER_NAME":"EARTH","FILE":"3716744","TLE_LINE2":"2 47655  53.0560 301.9947 0001270  73.1840 286.9288 15.06384723102515","APOAPSIS":"548.140","COUNTRY_CODE":"US","OBJECT_TYPE":"PAYLOAD","LAUNCH_DATE":"2021-02-16","REV_AT_EPOCH":"10251","BSTAR":"-0.00005990700000","TLE_LINE1":"1 47655U 21012AM  22355.67200904 -.00001173  00000-0 -59907-4 0  9996","PERIAPSIS":"546.381","RCS_SIZE":"LARGE","CLASSIFICATION_TYPE":"U","EPOCH":"2022-12-21T16:07:41.581056","NORAD_CAT_ID":"47655","ELEMENT_SET_NO":"999","DECAY_DATE":null,"REF_FRAME":"TEME","ARG_OF_PERICENTER":"73.1840","RA_OF_ASC_NODE":"301.9947","MEAN_MOTION_DOT":"-0.00001173","TIME_SYSTEM":"UTC","PERIOD":"95.593","MEAN_ANOMALY":"286.9288","MEAN_ELEMENT_THEORY":"SGP4","EPHEMERIS_TYPE":"0","MEAN_MOTION_DDOT":"0.0000000000000","MEAN_MOTION":"15.06384723","GP_ID":"221122693","ECCENTRICITY":"0.00012700"}];
